{"type": "FeatureCollection", "features": [{"type": "Feature", "properties": {"norad_id": 36828, "name": "BEIDOU-2 IGSO-1 (C06)", "group": "beidou", "lat": 44.28035014439529, "lon": -60.07839327809728, "alt_km": 35799.38665342894, "timestamp": "2025-12-26T05:31:12.772667+00:00", "meta": {"OBJECT_NAME": "BEIDOU-2 IGSO-1 (C06)", "OBJECT_ID": "2010-036A", "EPOCH": "2025-12-25T21:06:51.904224", "MEAN_MOTION": 1.00272533, "ECCENTRICITY": 0.00515074, "INCLINATION": 54.2892, "RA_OF_ASC_NODE": 164.5291, "ARG_OF_PERICENTER": 215.7944, "MEAN_ANOMALY": 138.9488, "EPHEMERIS_TYPE": 0, "CLASSIFICATION_TYPE": "U", "NORAD_CAT_ID": 36828, "ELEMENT_SET_NO": 999, "REV_AT_EPOCH": 5635, "BSTAR": 0, "MEAN_MOTION_DOT": -5.2e-07, "MEAN_MOTION_DDOT": 0}, "tle": {"line1": "1 36828U 10036A   25359.87976741 -.00000052  00000+0  00000+0 0  9996", "line2": "2 36828  54.2892 164.5291 0051507 215.7944 138.9488  1.00272533 56350"}}, "geometry": {"type": "Point", "coordinates": [-60.07839327809728, 44.28035014439529]}}, {"type": "Feature", "properties": {"norad_id": 37210, "name": "BEIDOU-2 G4 (C04)", "group": "beidou", "lat": -3.226095791297385, "lon": -22.027756058956918, "alt_km": 35774.3245186184, "timestamp": "2025-12-26T05:31:12.772691+00:00", "meta": {"OBJECT_NAME": "BEIDOU-2 G4 (C04)", "OBJECT_ID": "2010-057A", "EPOCH": "2025-12-25T19:04:40.718208", "MEAN_MOTION": 1.0027141, "ECCENTRICITY": 0.00104499, "INCLINATION": 3.2148, "RA_OF_ASC_NODE": 69.8888, "ARG_OF_PERICENTER": 194.0631, "MEAN_ANOMALY": 276.8504, "EPHEMERIS_TYPE": 0, "CLASSIFICATION_TYPE": "U", "NORAD_CAT_ID": 37210, "ELEMENT_SET_NO": 999, "REV_AT_EPOCH": 5555, "BSTAR": 0, "MEAN_MOTION_DOT": -9.1e-07, "MEAN_MOTION_DDOT": 0}, "tle": {"line1": "1 37210U 10057A   25359.79491572 -.00000091  00000+0  00000+0 0  9993", "line2": "2 37210   3.2148  69.8888 0010449 194.0631 276.8504  1.00271410 55550"}}, "geometry": {"type": "Point", "coordinates": [-22.027756058956918, -3.226095791297385]}}, {"type": "Feature", "properties": {"norad_id": 37256, "name": "BEIDOU-2 IGSO-2 (C07)", "group": "beidou", "lat": 8.918037083759247, "lon": -77.86257393352551, "alt_km": 35969.11473215327, "timestamp": "2025-12-26T05:31:12.772705+00:00", "meta": {"OBJECT_NAME": "BEIDOU-2 IGSO-2 (C07)", "OBJECT_ID": "2010-068A", "EPOCH": "2025-12-25T16:47:38.629824", "MEAN_MOTION": 1.00282453, "ECCENTRICITY": 0.00484524, "INCLINATION": 47.8622, "RA_OF_ASC_NODE": 273.9905, "ARG_OF_PERICENTER": 216.1586, "MEAN_ANOMALY": 324.3055, "EPHEMERIS_TYPE": 0, "CLASSIFICATION_TYPE": "U", "NORAD_CAT_ID": 37256, "ELEMENT_SET_NO": 999, "REV_AT_EPOCH": 5505, "BSTAR": 0, "MEAN_MOTION_DOT": -1.97e-06, "MEAN_MOTION_DDOT": 0}, "tle": {"line1": "1 37256U 10068A   25359.69975266 -.00000197  00000+0  00000+0 0  9998", "line2": "2 37256  47.8622 273.9905 0048452 216.1586 324.3055  1.00282453 55053"}}, "geometry": {"type": "Point", "coordinates": [-77.86257393352551, 8.918037083759247]}}, {"type": "Feature", "properties": {"norad_id": 37384, "name": "BEIDOU-2 IGSO-3 (C08)", "group": "beidou", "lat": -52.28670483122384, "lon": -95.0949902427612, "alt_km": 35708.88097207441, "timestamp": "2025-12-26T05:31:12.772718+00:00", "meta": {"OBJECT_NAME": "BEIDOU-2 IGSO-3 (C08)", "OBJECT_ID": "2011-013A", "EPOCH": "2025-12-24T13:36:08.179776", "MEAN_MOTION": 1.00268125, "ECCENTRICITY": 0.00352821, "INCLINATION": 62.1584, "RA_OF_ASC_NODE": 41.8043, "ARG_OF_PERICENTER": 187.8377, "MEAN_ANOMALY": 174.9924, "EPHEMERIS_TYPE": 0, "CLASSIFICATION_TYPE": "U", "NORAD_CAT_ID": 37384, "ELEMENT_SET_NO": 999, "REV_AT_EPOCH": 5391, "BSTAR": 0, "MEAN_MOTION_DOT": -1.63e-06, "MEAN_MOTION_DDOT": 0}, "tle": {"line1": "1 37384U 11013A   25358.56676134 -.00000163  00000+0  00000+0 0  9991", "line2": "2 37384  62.1584  41.8043 0035282 187.8377 174.9924  1.00268125 53913"}}, "geometry": {"type": "Point", "coordinates": [-95.0949902427612, -52.28670483122384]}}, {"type": "Feature", "properties": {"norad_id": 37763, "name": "BEIDOU-2 IGSO-4 (C09)", "group": "beidou", "lat": 52.232334882919474, "lon": -79.58824336446197, "alt_km": 36143.51919232613, "timestamp": "2025-12-26T05:31:12.772731+00:00", "meta": {"OBJECT_NAME": "BEIDOU-2 IGSO-4 (C09)", "OBJECT_ID": "2011-038A", "EPOCH": "2025-12-21T10:06:26.864064", "MEAN_MOTION": 1.00280083, "ECCENTRICITY": 0.01491557, "INCLINATION": 54.5854, "RA_OF_ASC_NODE": 167.2693, "ARG_OF_PERICENTER": 230.0944, "MEAN_ANOMALY": 299.1265, "EPHEMERIS_TYPE": 0, "CLASSIFICATION_TYPE": "U", "NORAD_CAT_ID": 37763, "ELEMENT_SET_NO": 999, "REV_AT_EPOCH": 5286, "BSTAR": 0, "MEAN_MOTION_DOT": 5.9e-07, "MEAN_MOTION_DDOT": 0}, "tle": {"line1": "1 37763U 11038A   25355.42114426  .00000059  00000+0  00000+0 0  9995", "line2": "2 37763  54.5854 167.2693 0149155 230.0944 299.1265  1.00280083 52867"}}, "geometry": {"type": "Point", "coordinates": [-79.58824336446197, 52.232334882919474]}}, {"type": "Feature", "properties": {"norad_id": 37948, "name": "BEIDOU-2 IGSO-5 (C10)", "group": "beidou", "lat": -1.032851670897843, "lon": -87.23519462298066, "alt_km": 36115.90433669026, "timestamp": "2025-12-26T05:31:12.772744+00:00", "meta": {"OBJECT_NAME": "BEIDOU-2 IGSO-5 (C10)", "OBJECT_ID": "2011-073A", "EPOCH": "2025-12-25T17:46:48.300384", "MEAN_MOTION": 1.00288091, "ECCENTRICITY": 0.01096686, "INCLINATION": 47.9959, "RA_OF_ASC_NODE": 273.6993, "ARG_OF_PERICENTER": 222.1113, "MEAN_ANOMALY": 319.0848, "EPHEMERIS_TYPE": 0, "CLASSIFICATION_TYPE": "U", "NORAD_CAT_ID": 37948, "ELEMENT_SET_NO": 999, "REV_AT_EPOCH": 5139, "BSTAR": 0, "MEAN_MOTION_DOT": -1.42e-06, "MEAN_MOTION_DDOT": 0}, "tle": {"line1": "1 37948U 11073A   25359.74083681 -.00000142  00000+0  00000+0 0  9990", "line2": "2 37948  47.9959 273.6993 0109668 222.1113 319.0848  1.00288091 51397"}}, "geometry": {"type": "Point", "coordinates": [-87.23519462298066, -1.032851670897843]}}, {"type": "Feature", "properties": {"norad_id": 38091, "name": "BEIDOU-2 G5 (C05)", "group": "beidou", "lat": 0.7635798210781801, "lon": -123.61362471299151, "alt_km": 35764.07665342285, "timestamp": "2025-12-26T05:31:12.772756+00:00", "meta": {"OBJECT_NAME": "BEIDOU-2 G5 (C05)", "OBJECT_ID": "2012-008A", "EPOCH": "2025-12-25T21:54:09.656928", "MEAN_MOTION": 1.00270052, "ECCENTRICITY": 0.00131298, "INCLINATION": 3.1399, "RA_OF_ASC_NODE": 70.6602, "ARG_OF_PERICENTER": 232.1831, "MEAN_ANOMALY": 179.0905, "EPHEMERIS_TYPE": 0, "CLASSIFICATION_TYPE": "U", "NORAD_CAT_ID": 38091, "ELEMENT_SET_NO": 999, "REV_AT_EPOCH": 5063, "BSTAR": 0, "MEAN_MOTION_DOT": 7.8e-07, "MEAN_MOTION_DDOT": 0}, "tle": {"line1": "1 38091U 12008A   25359.91261177  .00000078  00000+0  00000+0 0  9993", "line2": "2 38091   3.1399  70.6602 0013129 232.1831 179.0905  1.00270052 50637"}}, "geometry": {"type": "Point", "coordinates": [-123.61362471299151, 0.7635798210781801]}}, {"type": "Feature", "properties": {"norad_id": 38250, "name": "BEIDOU-2 M3 (C11)", "group": "beidou", "lat": -31.456451147369744, "lon": -73.76342476400242, "alt_km": 21484.839869337164, "timestamp": "2025-12-26T05:31:12.772767+00:00", "meta": {"OBJECT_NAME": "BEIDOU-2 M3 (C11)", "OBJECT_ID": "2012-018A", "EPOCH": "2025-12-24T03:22:03.617760", "MEAN_MOTION": 1.86230154, "ECCENTRICITY": 0.00241099, "INCLINATION": 55.9106, "RA_OF_ASC_NODE": 310.7747, "ARG_OF_PERICENTER": 275.3713, "MEAN_ANOMALY": 84.3565, "EPHEMERIS_TYPE": 0, "CLASSIFICATION_TYPE": "U", "NORAD_CAT_ID": 38250, "ELEMENT_SET_NO": 999, "REV_AT_EPOCH": 9268, "BSTAR": 0, "MEAN_MOTION_DOT": -5.3e-07, "MEAN_MOTION_DDOT": 0}, "tle": {"line1": "1 38250U 12018A   25358.14031965 -.00000053  00000+0  00000+0 0  9999", "line2": "2 38250  55.9106 310.7747 0024109 275.3713  84.3565  1.86230154 92685"}}, "geometry": {"type": "Point", "coordinates": [-73.76342476400242, -31.456451147369744]}}, {"type": "Feature", "properties": {"norad_id": 38251, "name": "BEIDOU-2 M4 (C12)", "group": "beidou", "lat": 5.412501079158891, "lon": -46.39505747031761, "alt_km": 21524.497049752285, "timestamp": "2025-12-26T05:31:12.772778+00:00", "meta": {"OBJECT_NAME": "BEIDOU-2 M4 (C12)", "OBJECT_ID": "2012-018B", "EPOCH": "2025-12-25T03:30:42.765120", "MEAN_MOTION": 1.86229477, "ECCENTRICITY": 0.00149056, "INCLINATION": 55.8105, "RA_OF_ASC_NODE": 309.9689, "ARG_OF_PERICENTER": 280.9074, "MEAN_ANOMALY": 78.9304, "EPHEMERIS_TYPE": 0, "CLASSIFICATION_TYPE": "U", "NORAD_CAT_ID": 38251, "ELEMENT_SET_NO": 999, "REV_AT_EPOCH": 9270, "BSTAR": 0, "MEAN_MOTION_DOT": -5.3e-07, "MEAN_MOTION_DDOT": 0}, "tle": {"line1": "1 38251U 12018B   25359.14632830 -.00000053  00000+0  00000+0 0  9999", "line2": "2 38251  55.8105 309.9689 0014905 280.9074  78.9304  1.86229477 92703"}}, "geometry": {"type": "Point", "coordinates": [-46.39505747031761, 5.412501079158891]}}, {"type": "Feature", "properties": {"norad_id": 38775, "name": "BEIDOU-2 M6 (C14)", "group": "beidou", "lat": -16.84547277560197, "lon": -99.76049892134087, "alt_km": 21556.044542694526, "timestamp": "2025-12-26T05:31:12.772790+00:00", "meta": {"OBJECT_NAME": "BEIDOU-2 M6 (C14)", "OBJECT_ID": "2012-050B", "EPOCH": "2025-12-24T07:41:05.368128", "MEAN_MOTION": 1.86230801, "ECCENTRICITY": 0.00114872, "INCLINATION": 56.388, "RA_OF_ASC_NODE": 68.6832, "ARG_OF_PERICENTER": 343.1884, "MEAN_ANOMALY": 16.8281, "EPHEMERIS_TYPE": 0, "CLASSIFICATION_TYPE": "U", "NORAD_CAT_ID": 38775, "ELEMENT_SET_NO": 999, "REV_AT_EPOCH": 9005, "BSTAR": 0, "MEAN_MOTION_DOT": -2.4e-07, "MEAN_MOTION_DDOT": 0}, "tle": {"line1": "1 38775U 12050B   25358.32020102 -.00000024  00000+0  00000+0 0  9996", "line2": "2 38775  56.3880  68.6832 0011487 343.1884  16.8281  1.86230801 90056"}}, "geometry": {"type": "Point", "coordinates": [-99.76049892134087, -16.84547277560197]}}]}